NUSAT-1 (FRESCO)        
1 41557U 16033B   21304.52092959  .00005527  00000-0  19069-3 0  9993
2 41557  97.3931  37.7593 0014124 110.1668  13.6213 15.30296921302330
BEESAT-4                
1 41619U 16040W   21304.40121236  .00008711  00000-0  33682-3 0  9993
2 41619  97.2536 356.6269 0009765 201.4495 158.6337 15.26412546285749
CAS-2T & KS-1Q          
1 41847U 16066G   21304.41559903  .00000680  00000-0  11195-3 0  9993
2 41847  98.5854   4.0042 0365222 174.2991 186.2532 14.38267959261424
NAYIF-1 (EO-88)         
1 42017U 17008BX  21304.45836370  .00009991  00000-0  35501-3 0  9991
2 42017  97.3021   9.5921 0005494   2.8801 357.2470 15.29193627262031
ZHUHAI-1 02 (CAS-4B)    
1 42759U 17034B   21304.53045741  .00001258  00000-0  88286-4 0  9993
2 42759  43.0167 152.8459 0009421 294.8669 151.8708 15.10490494241727
ZHUHAI-1 01 (CAS-4A)    
1 42761U 17034D   21304.58182124  .00001396  00000-0  96245-4 0  9995
2 42761  43.0164 151.5167 0009797 297.1539 161.2964 15.10577475241732
MAX VALIER SAT          
1 42778U 17036P   21304.36190800  .00005259  00000-0  21827-3 0  9996
2 42778  97.2403 348.4422 0013121  61.8142 298.4419 15.24184483241983
RADFXSAT (FOX-1B)       
1 43017U 17073E   21304.52618576  .00001910  00000-0  15173-3 0  9994
2 43017  97.6928 203.0374 0252811 216.0147 142.3803 14.79897454213248
FOX-1D (AO-92)          
1 43137U 18004AC  21304.43756467  .00006108  00000-0  24056-3 0  9998
2 43137  97.3956  17.0402 0010250  92.2116 268.0297 15.25929402211391
DIWATA-2B               
1 43678U 18084H   21304.48201893  .00000196  00000-0  25250-4 0  9998
2 43678  97.9413  70.6072 0009282 329.9675  30.0994 14.91818179163719
ES'HAIL 2               
1 43700U 18090A   21304.50725904  .00000152  00000-0  00000-0 0  9992
2 43700   0.0170 148.5861 0002542  99.4543   0.4361  1.00274026 10731
FOX-1CLIFF (AO-95)      
1 43770U 18099N   21304.41741320  .00001595  00000-0  14893-3 0  9998
2 43770  97.6520  11.5151 0013506 328.4273  31.6136 14.95508911158771
ITASAT 1                
1 43786U 18099AE  21304.11017312  .00000715  00000-0  69112-4 0  9997
2 43786  97.6538  11.9876 0014182 321.1133  38.9067 14.95774643158760
JY1SAT (JO-97)          
1 43803U 18099AX  21304.45153534  .00001370  00000-0  12686-3 0  9992
2 43803  97.6497  12.0602 0014020 319.0966  40.9202 14.96059300158822
UWE-4                   
1 43880U 18111E   21304.47736365  .00001871  00000-0  16713-3 0  9994
2 43880  97.6761 209.8181 0012427  15.1692 344.9901 14.97074343155430
NEXUS (FO-99)           
1 43937U 19003F   21304.37829238  .00007648  00000-0  29340-3 0  9997
2 43937  97.1625 342.0648 0020973 248.3262 111.5744 15.26546618154998
PSAT2 (NO-104)          
1 44354U 19036R   21303.66872702  .00046456  00000-0  58200-3 0  9999
2 44354  28.5291 302.4490 0305045 307.0796  50.2274 15.18838492129517
BRICSAT2 (NO-103)       
1 44355U 19036S   21304.09115794  .00116380 -29413-5  10341-2 0  9991
2 44355  28.5233 228.3011 0216883  67.6950 294.6492 15.42550917130294
JAISAT-1                
1 44419U 19038F   21304.32535439  .00005571  00000-0  30625-3 0  9994
2 44419  97.6057 268.6897 0020059 199.2916 160.7558 15.14330773128352
DUCHIFAT-3              
1 44854U 19089C   21304.49244452  .00001639  00000-0  13646-3 0  9998
2 44854  36.9677  16.0046 0007048 165.4976 194.6033 14.99740866103531
CAS-6 (TO-108)          
1 44881U 19093C   21304.49579194  .00000201  00000-0  32330-4 0  9993
2 44881  97.9149  21.7788 0014280 206.1408 153.9085 14.81499812100879
RS-44 & BREEZE-KM R/B   
1 44909U 19096E   21304.50843901  .00000007  00000-0 -25243-4 0  9999
2 44909  82.5262  22.4047 0218256 134.8682 227.0378 12.79711276 86273
ORBITAL FACTORY 2 (OF-2)
1 45113U 19071C   21304.15725867  .00014622  00000-0  40381-3 0  9997
2 45113  51.6408  98.9465 0011530  65.6115 294.6070 15.37231207 98034
HUSKYSAT-1 (HO-107)     
1 45119U 19071J   21304.04034703  .00014523  00000-0  40244-3 0  9991
2 45119  51.6400  98.9063 0010980  62.0209 298.1884 15.37136674 98011
BY70-2                  
1 45857U 20042B   21304.45480290  .00002433  00000-0  34821-3 0  9992
2 45857  97.9752  18.7662 0012315 132.8718 227.3572 14.77469964 71623
SALSAT                  
1 46495U 20068K   21304.55935586  .00001317  00000-0  10058-3 0  9999
2 46495  97.7016 241.3169 0016115 337.7005  22.3517 15.03634815 59780
BY70-3                  
1 46839U 20079N   21304.50794747  .00008118  00000-0  24139-3 0  9991
2 46839  97.2282  15.6704 0008631  80.2492  49.6455 15.34964769 55061
RADFXSAT-2 (AO-109)     
1 47311U 21002C   21304.28690379  .00005555  00000-0  24625-3 0  9997
2 47311  60.6859 142.5098 0039790 115.9998 244.5195 15.22268599 43546
UVSQ-SAT                
1 47438U 21006AB  21304.06421685  .00003394  00000-0  19270-3 0  9998
2 47438  97.4721   2.7741 0012333 357.3551   2.7613 15.13545901 42560
DIY-1 (ARDUIQUBE)       
1 47963U 21022AH  21304.42335645  .00008622  00000-0  55973-3 0  9998
2 47963  97.5447 204.3175 0018337 195.7974 164.2684 15.08156874 32385
